{
  "norad_id": 57933,
  "name": "STARLINK-30461",
  "history": [
    {
      "epoch": "2026-03-28T15:49:18.407712Z",
      "apogee_km": 483.8531477823235,
      "perigee_km": 482.20097947580234,
      "latitude_deg": 2.91378651220507e-05,
      "longitude_deg": 154.28481903065145,
      "height_km": 482.9002009748565,
      "semi_major_axis_km": 6861.164063629063,
      "eccentricity": 0.0001204,
      "inclination_deg": 42.9985,
      "raan_deg": 217.688,
      "arg_perigee_deg": 263.2712,
      "mean_anomaly_deg": 96.8003,
      "mean_motion_rev_day": 15.27587358
    },
    {
      "epoch": "2026-03-29T01:14:14.323488Z",
      "apogee_km": 484.29455919817156,
      "perigee_km": 481.72917563664305,
      "latitude_deg": -7.575419222301861e-06,
      "longitude_deg": 10.447715204537841,
      "height_km": 482.5497751235886,
      "semi_major_axis_km": 6861.148867417407,
      "eccentricity": 0.00018695,
      "inclination_deg": 43.0014,
      "raan_deg": 215.4706,
      "arg_perigee_deg": 280.7536,
      "mean_anomaly_deg": 79.3105,
      "mean_motion_rev_day": 15.27592433
    },
    {
      "epoch": "2026-03-30T14:54:00.728928Z",
      "apogee_km": 483.61558672456886,
      "perigee_km": 482.5081892240487,
      "latitude_deg": 9.86891694790801e-06,
      "longitude_deg": 155.09641905835366,
      "height_km": 482.9043702773828,
      "semi_major_axis_km": 6861.1988879743085,
      "eccentricity": 8.07e-05,
      "inclination_deg": 43.0043,
      "raan_deg": 206.6094,
      "arg_perigee_deg": 263.1717,
      "mean_anomaly_deg": 96.9043,
      "mean_motion_rev_day": 15.27575728
    },
    {
      "epoch": "2026-03-31T14:26:21.256224Z",
      "apogee_km": 483.84437501849516,
      "perigee_km": 482.22239433955747,
      "latitude_deg": -1.0887304226357115e-05,
      "longitude_deg": 155.50785397573802,
      "height_km": 482.82097376338356,
      "semi_major_axis_km": 6861.170384679026,
      "eccentricity": 0.0001182,
      "inclination_deg": 42.9996,
      "raan_deg": 201.0731,
      "arg_perigee_deg": 269.2146,
      "mean_anomaly_deg": 90.857,
      "mean_motion_rev_day": 15.27585247
    },
    {
      "epoch": "2026-04-01T13:58:42.718368Z",
      "apogee_km": 483.8464425812426,
      "perigee_km": 482.3314838885599,
      "latitude_deg": -4.902943873726713e-05,
      "longitude_deg": 155.91216447882582,
      "height_km": 482.7425057976454,
      "semi_major_axis_km": 6861.2259632349005,
      "eccentricity": 0.0001104,
      "inclination_deg": 42.999,
      "raan_deg": 195.5336,
      "arg_perigee_deg": 279.3304,
      "mean_anomaly_deg": 80.7422,
      "mean_motion_rev_day": 15.27566686
    },
    {
      "epoch": "2026-04-02T15:05:12.557184Z",
      "apogee_km": 483.8945907798452,
      "perigee_km": 482.24501943976156,
      "latitude_deg": 2.4950610518728624e-05,
      "longitude_deg": 132.34425515622505,
      "height_km": 482.5411837764875,
      "semi_major_axis_km": 6861.206805109803,
      "eccentricity": 0.00012021,
      "inclination_deg": 43.0035,
      "raan_deg": 189.6211,
      "arg_perigee_deg": 291.7413,
      "mean_anomaly_deg": 68.3311,
      "mean_motion_rev_day": 15.27573084
    },
    {
      "epoch": "2026-04-02T22:55:59.299680Z",
      "apogee_km": 483.90221564159765,
      "perigee_km": 482.18198081808987,
      "latitude_deg": 6.386337882464327e-06,
      "longitude_deg": 12.481938385588686,
      "height_km": 482.6183820260442,
      "semi_major_axis_km": 6861.1790982298435,
      "eccentricity": 0.00012536,
      "inclination_deg": 43.0026,
      "raan_deg": 187.7758,
      "arg_perigee_deg": 283.4858,
      "mean_anomaly_deg": 76.5854,
      "mean_motion_rev_day": 15.27582337
    },
    {
      "epoch": "2026-04-03T14:37:34.225824Z",
      "apogee_km": 484.02935658571823,
      "perigee_km": 482.2509135523096,
      "latitude_deg": 2.4844426964161486e-05,
      "longitude_deg": 132.75094240568194,
      "height_km": 482.7887501419018,
      "semi_major_axis_km": 6861.277135069014,
      "eccentricity": 0.0001296,
      "inclination_deg": 43.0023,
      "raan_deg": 184.0848,
      "arg_perigee_deg": 278.2934,
      "mean_anomaly_deg": 81.7771,
      "mean_motion_rev_day": 15.27549597
    }
  ]
}